H1 CPF 01  gfz 2021 05 05 00  6251 terrasarx 
H2 0702601  6201 31698    2021 05 05 00 59 42 2021 05 10 00 00 42   120 1 1  0 0 0
H9
10 0 59339  86382.000000  0    -296032.289   6612406.079   1902253.274
10 0 59340    102.000000  0    -122491.896   6811385.655   1018727.852
10 0 59340    222.000000  0      55600.165   6888215.156    117265.408
10 0 59340    342.000000  0     232981.313   6841563.168   -786262.447
10 0 59340    462.000000  0     404402.467   6672371.339  -1675962.738
10 0 59340    582.000000  0     564759.969   6383829.436  -2536208.934
10 0 59340    702.000000  0     709223.448   5981306.967  -3351920.874
10 0 59340    822.000000  0     833357.270   5472242.960  -4108832.298
10 0 59340    942.000000  0     933231.999   4865996.240  -4793740.326
10 0 59340   1062.000000  0    1005523.427   4173660.885  -5394731.655
10 0 59340   1182.000000  0    1047596.874   3407852.537  -5901382.076
10 0 59340   1302.000000  0    1057574.663   2582470.392  -6304927.854
10 0 59340   1422.000000  0    1034386.358   1712439.738  -6598405.388
10 0 59340   1542.000000  0     977800.669    813442.394  -6776760.057
10 0 59340   1662.000000  0     888438.822    -98363.006  -6836924.872
10 0 59340   1782.000000  0     767769.465  -1006626.519  -6777867.093
10 0 59340   1902.000000  0     618084.492  -1895093.081  -6600602.296
10 0 59340   2022.000000  0     442457.425  -2747884.576  -6308178.668
10 0 59340   2142.000000  0     244683.692  -3549778.459  -5905632.815
10 0 59340   2262.000000  0      29203.466  -4286477.956  -5399911.176
10 0 59340   2382.000000  0    -198990.372  -4944867.324  -4799760.855
10 0 59340   2502.000000  0    -434459.341  -5513250.405  -4115590.096
10 0 59340   2622.000000  0    -671439.404  -5981567.239  -3359297.928
10 0 59340   2742.000000  0    -903971.319  -6341583.052  -2544074.847
10 0 59340   2862.000000  0   -1126038.851  -6587045.773  -1684177.786
10 0 59340   2982.000000  0   -1331711.457  -6713807.823   -794681.004
10 0 59340   3102.000000  0   -1515287.821  -6719906.844    108791.861
10 0 59340   3222.000000  0   -1671436.899  -6605603.264   1010348.449
10 0 59340   3342.000000  0   -1795333.045  -6373373.533   1894115.422
10 0 59340   3462.000000  0   -1882781.179  -6027858.385   2744527.286
10 0 59340   3582.000000  0   -1930328.427  -5575766.815   3546609.235
10 0 59340   3702.000000  0   -1935359.333  -5025738.992   4286247.117
10 0 59340   3822.000000  0   -1896172.314  -4388172.663   4950438.790
10 0 59340   3942.000000  0   -1812036.930  -3675018.186   5527523.410
10 0 59340   4062.000000  0   -1683229.745  -2899544.630   6007384.969
10 0 59340   4182.000000  0   -1511047.069  -2076084.507   6381623.949
10 0 59340   4302.000000  0   -1297795.936  -1219764.624   6643697.927
10 0 59340   4422.000000  0   -1046764.497   -346225.003   6789030.447
10 0 59340   4542.000000  0    -762172.048    528667.814   6815084.986
10 0 59340   4662.000000  0    -449098.227   1389107.938   6721407.007
10 0 59340   4782.000000  0    -113392.193   2219635.378   6509631.687
10 0 59340   4902.000000  0     238436.326   3005413.591   6183456.909
10 0 59340   5022.000000  0     599341.819   3732494.916   5748582.772
10 0 59340   5142.000000  0     961881.854   4388071.304   5212617.687
10 0 59340   5262.000000  0    1318368.286   4960705.058   4584951.300
10 0 59340   5382.000000  0    1661027.646   5440535.569   3876594.762
10 0 59340   5502.000000  0    1982167.640   5819457.179   3099993.280
10 0 59340   5622.000000  0    2274347.820   6091267.285   2268808.321
10 0 59340   5742.000000  0    2530546.812   6251776.277   1397673.465
10 0 59340   5862.000000  0    2744324.674   6298876.896    501930.334
10 0 59340   5982.000000  0    2909973.839   6232570.738   -402648.957
10 0 59340   6102.000000  0    3022657.081   6054953.611  -1300147.426
10 0 59340   6222.000000  0    3078528.352   5770158.364  -2174791.391
10 0 59340   6342.000000  0    3074833.226   5384257.869  -3011234.734
10 0 59340   6462.000000  0    3009986.559   4905129.456  -3794833.788
10 0 59340   6582.000000  0    2883624.770   4342284.800  -4511904.960
10 0 59340   6702.000000  0    2696632.521   3706672.219  -5149960.920
10 0 59340   6822.000000  0    2451144.081   3010455.618  -5697921.702
10 0 59340   6942.000000  0    2150520.298   2266775.423  -6146298.423
10 0 59340   7062.000000  0    1799300.652   1489496.600  -6487346.446
10 0 59340   7182.000000  0    1403133.521    692950.102  -6715186.991
10 0 59340   7302.000000  0     968685.443   -108328.120  -6825898.987
10 0 59340   7422.000000  0     503528.866   -899857.857  -6817579.660
10 0 59340   7542.000000  0      16012.211  -1667470.291  -6690371.884
10 0 59340   7662.000000  0    -484885.523  -2397553.963  -6446461.758
10 0 59340   7782.000000  0    -989715.950  -3077291.355  -6090046.901
10 0 59340   7902.000000  0   -1488735.001  -3694881.806  -5627271.139
10 0 59340   8022.000000  0   -1972086.301  -4239746.083  -5066129.271
10 0 59340   8142.000000  0   -2429992.872  -4702712.137  -4416341.311
10 0 59340   8262.000000  0   -2852953.753  -5076176.825  -3689194.542
10 0 59340   8382.000000  0   -3231940.469  -5354239.019  -2897355.968
10 0 59340   8502.000000  0   -3558589.631  -5532802.259  -2054658.026
10 0 59340   8622.000000  0   -3825387.814  -5609643.800  -1175859.521
10 0 59340   8742.000000  0   -4025843.185  -5584447.249   -276385.228
10 0 59340   8862.000000  0   -4154638.723  -5458796.965    627950.302
10 0 59340   8982.000000  0   -4207763.433  -5236134.067   1521228.702
10 0 59340   9102.000000  0   -4182617.640  -4921674.031   2387717.632
10 0 59340   9222.000000  0   -4078089.060  -4522288.044   3212156.487
10 0 59340   9342.000000  0   -3894598.765  -4046352.481   3980032.102
10 0 59340   9462.000000  0   -3634115.426  -3503569.686   4677839.609
10 0 59340   9582.000000  0   -3300137.414  -2904764.069   5293321.529
10 0 59340   9702.000000  0   -2897644.575  -2261660.802   5815680.944
10 0 59340   9822.000000  0   -2433020.686  -1586652.443   6235767.227
10 0 59340   9942.000000  0   -1913948.684   -892556.730   6546232.488
10 0 59340  10062.000000  0   -1349278.826   -192369.390   6741654.593
10 0 59340  10182.000000  0    -748874.966    500979.194   6818623.457
10 0 59340  10302.000000  0    -123442.711   1174861.209   6775797.070
10 0 59340  10422.000000  0     515661.149   1817181.021   6613923.915
10 0 59340  10542.000000  0    1156634.530   2416592.353   6335830.558
10 0 59340  10662.000000  0    1787447.140   2962698.424   5946374.743
10 0 59340  10782.000000  0    2396065.472   3446233.815   5452366.464
10 0 59340  10902.000000  0    2970683.535   3859225.884   4862455.790
10 0 59340  11022.000000  0    3499954.815   4195130.835   4186985.923
10 0 59340  11142.000000  0    3973217.976   4448941.287   3437816.703
10 0 59340  11262.000000  0    4380717.227   4617267.233   2628120.573
10 0 59340  11382.000000  0    4713808.441   4698382.291   1772147.202
10 0 59340  11502.000000  0    4965143.268   4692237.456    884969.892
10 0 59340  11622.000000  0    5128833.370   4600440.618    -17786.510
10 0 59340  11742.000000  0    5200583.489   4426200.981   -920230.846
10 0 59340  11862.000000  0    5177791.980   4174240.799  -1806493.728
10 0 59340  11982.000000  0    5059618.318   3850677.291  -2661013.907
10 0 59340  12102.000000  0    4847014.958   3462877.573  -3468817.093
10 0 59340  12222.000000  0    4542722.657   3019291.602  -4215781.067
10 0 59340  12342.000000  0    4151230.173   2529266.679  -4888882.251
10 0 59340  12462.000000  0    3678700.615   2002847.622  -5476417.917
10 0 59340  12582.000000  0    3132866.691   1450569.194  -5968201.587
10 0 59340  12702.000000  0    2522896.785    883245.266  -6355729.599
10 0 59340  12822.000000  0    1859235.884    311758.593  -6632316.102
10 0 59340  12942.000000  0    1153426.110   -253144.117  -6793197.174
10 0 59340  13062.000000  0     417907.359   -801050.314  -6835605.872
10 0 59340  13182.000000  0    -334199.247  -1322069.064  -6758812.973
10 0 59340  13302.000000  0   -1089319.078  -1807004.197  -6564137.616
10 0 59340  13422.000000  0   -1833663.258  -2247513.068  -6254928.181
10 0 59340  13542.000000  0   -2553474.981  -2636248.345  -5836510.364
10 0 59340  13662.000000  0   -3235278.749  -2966980.009  -5316105.195
10 0 59340  13782.000000  0   -3866131.744  -3234697.801  -4702716.935
10 0 59340  13902.000000  0   -4433871.814  -3435690.654  -4006987.890
10 0 59340  14022.000000  0   -4927356.066  -3567600.754  -3241023.624
10 0 59340  14142.000000  0   -5336686.373  -3629451.789  -2418189.827
10 0 59340  14262.000000  0   -5653415.807  -3621649.714  -1552882.613
10 0 59340  14382.000000  0   -5870730.112  -3545955.224   -660276.669
10 0 59340  14502.000000  0   -5983600.006  -3405428.529    243944.326
10 0 59340  14622.000000  0   -5988900.036  -3204347.350   1143869.656
10 0 59340  14742.000000  0   -5885489.406  -2948099.593   2023651.383
10 0 59340  14862.000000  0   -5674250.962  -2643052.328   2867792.951
10 0 59340  14982.000000  0   -5358090.185  -2296402.729   3661429.406
10 0 59340  15102.000000  0   -4941893.178  -1916013.444   4390596.565
10 0 59340  15222.000000  0   -4432443.533  -1510235.867   5042479.315
10 0 59340  15342.000000  0   -3838304.027  -1087728.722   5605635.335
10 0 59340  15462.000000  0   -3169665.748   -657274.822   6070193.724
10 0 59340  15582.000000  0   -2438165.618   -227598.588   6428024.586
10 0 59340  15702.000000  0   -1656676.492    192810.232   6672874.758
10 0 59340  15822.000000  0    -839076.710    595862.079   6800470.021
10 0 59340  15942.000000  0         -2.636    974021.715   6808584.963
10 0 59340  16062.000000  0     845412.817   1320448.223   6697079.127
10 0 59340  16182.000000  0    1681812.186   1629118.898   6467899.435
10 0 59340  16302.000000  0    2493891.495   1894934.116   6125047.840
10 0 59340  16422.000000  0    3266680.106   2113801.928   5674516.511
99
